[{"OBJECT_NAME":"STARLINK-32246","OBJECT_ID":"2024-144H","EPOCH":"2026-03-09T17:24:35.163936","MEAN_MOTION":15.30175002,"ECCENTRICITY":0.00011589,"INCLINATION":53.1605,"RA_OF_ASC_NODE":217.0336,"ARG_OF_PERICENTER":99.4458,"MEAN_ANOMALY":260.6674,"EPHEMERIS_TYPE":0,"CLASSIFICATION_TYPE":"U","NORAD_CAT_ID":60432,"ELEMENT_SET_NO":999,"REV_AT_EPOCH":8931,"BSTAR":-6.9639179e-5,"MEAN_MOTION_DOT":-2.419e-5,"MEAN_MOTION_DDOT":0},{"OBJECT_NAME":"YAOGAN-43 01D","OBJECT_ID":"2024-148D","EPOCH":"2026-03-09T10:27:16.254720","MEAN_MOTION":15.28369377,"ECCENTRICITY":0.00025569,"INCLINATION":35.001,"RA_OF_ASC_NODE":61.7102,"ARG_OF_PERICENTER":326.2473,"MEAN_ANOMALY":33.808,"EPHEMERIS_TYPE":0,"CLASSIFICATION_TYPE":"U","NORAD_CAT_ID":60461,"ELEMENT_SET_NO":999,"REV_AT_EPOCH":8700,"BSTAR":0.00037765912,"MEAN_MOTION_DOT":0.00010676,"MEAN_MOTION_DDOT":0}]
