STARLINK-32246          
1 60432U 24144H   26068.72540699 -.00002419  00000+0 -69639-4 0  9998
2 60432  53.1605 217.0336 0001159  99.4458 260.6674 15.30175002 89310
YAOGAN-43 01D           
1 60461U 24148D   26068.43560480  .00010676  00000+0  37766-3 0  9999
2 60461  35.0010  61.7102 0002556 326.2473  33.8080 15.28369377 87008
